{
  "type": "FeatureCollection",
  "features": [
    {
      "type": "Feature",
      "properties": {
        "norad_id": 30671,
        "name": "FENGYUN 1C DEB",
        "group": "fengyun-1c-debris",
        "lat": -32.16331842231,
        "lon": -144.5515533897038,
        "alt_km": 996.8917484491967,
        "timestamp": "2025-12-02T15:49:07.467755+00:00",
        "meta_object_name": "FENGYUN 1C DEB",
        "meta_object_id": "1999-025AQD",
        "meta_epoch": "2025-12-01T09:50:37.254624",
        "meta_mean_motion": 13.95401385,
        "meta_eccentricity": 0.01269682,
        "meta_inclination": 99.2533,
        "meta_ra_of_asc_node": 40.079,
        "meta_arg_of_pericenter": 64.3128,
        "meta_mean_anomaly": 356.8265,
        "meta_ephemeris_type": 0,
        "meta_classification_type": "U",
        "meta_norad_cat_id": 30671,
        "meta_element_set_no": 999,
        "meta_rev_at_epoch": 95037,
        "meta_bstar": 0.0016268019,
        "meta_mean_motion_dot": 2.315e-05,
        "meta_mean_motion_ddot": 0,
        "tle_line1": "1 30671U 99025AQD 25335.41015341  .00002315  00000+0  16268-2 0  9994",
        "tle_line2": "2 30671  99.2533  40.0790 0126968  64.3128 356.8265 13.95401385950374"
      },
      "geometry": {
        "type": "Point",
        "coordinates": [
          -144.5515533897038,
          -32.16331842231
        ]
      }
    },
    {
      "type": "Feature",
      "properties": {
        "norad_id": 30673,
        "name": "FENGYUN 1C DEB",
        "group": "fengyun-1c-debris",
        "lat": 76.88579317714736,
        "lon": -111.58908203581497,
        "alt_km": 862.1335960308243,
        "timestamp": "2025-12-02T15:49:07.467765+00:00",
        "meta_object_name": "FENGYUN 1C DEB",
        "meta_object_id": "1999-025AQF",
        "meta_epoch": "2025-12-02T01:57:06.327072",
        "meta_mean_motion": 14.03444775,
        "meta_eccentricity": 0.00523049,
        "meta_inclination": 98.9215,
        "meta_ra_of_asc_node": 25.4485,
        "meta_arg_of_pericenter": 172.3352,
        "meta_mean_anomaly": 250.2361,
        "meta_ephemeris_type": 0,
        "meta_classification_type": "U",
        "meta_norad_cat_id": 30673,
        "meta_element_set_no": 999,
        "meta_rev_at_epoch": 96382,
        "meta_bstar": 0.00043211075,
        "meta_mean_motion_dot": 6.41e-06,
        "meta_mean_motion_ddot": 0,
        "tle_line1": "1 30673U 99025AQF 25336.08132323  .00000641  00000+0  43211-3 0  9999",
        "tle_line2": "2 30673  98.9215  25.4485 0052304 172.3352 250.2361 14.03444775963826"
      },
      "geometry": {
        "type": "Point",
        "coordinates": [
          -111.58908203581497,
          76.88579317714736
        ]
      }
    },
    {
      "type": "Feature",
      "properties": {
        "norad_id": 30674,
        "name": "FENGYUN 1C DEB",
        "group": "fengyun-1c-debris",
        "lat": 8.421343077024769,
        "lon": 136.74044816893493,
        "alt_km": 577.6439484154425,
        "timestamp": "2025-12-02T15:49:07.467776+00:00",
        "meta_object_name": "FENGYUN 1C DEB",
        "meta_object_id": "1999-025AQG",
        "meta_epoch": "2025-12-01T23:41:52.135872",
        "meta_mean_motion": 14.93093505,
        "meta_eccentricity": 0.00238412,
        "meta_inclination": 98.9419,
        "meta_ra_of_asc_node": 137.3134,
        "meta_arg_of_pericenter": 327.7812,
        "meta_mean_anomaly": 32.1946,
        "meta_ephemeris_type": 0,
        "meta_classification_type": "U",
        "meta_norad_cat_id": 30674,
        "meta_element_set_no": 999,
        "meta_rev_at_epoch": 97191,
        "meta_bstar": 0.0079434888,
        "meta_mean_motion_dot": 0.00084114,
        "meta_mean_motion_ddot": 0,
        "tle_line1": "1 30674U 99025AQG 25335.98740898  .00084114  00000+0  79435-2 0  9993",
        "tle_line2": "2 30674  98.9419 137.3134 0023841 327.7812  32.1946 14.93093505971913"
      },
      "geometry": {
        "type": "Point",
        "coordinates": [
          136.74044816893493,
          8.421343077024769
        ]
      }
    },
    {
      "type": "Feature",
      "properties": {
        "norad_id": 30675,
        "name": "FENGYUN 1C DEB",
        "group": "fengyun-1c-debris",
        "lat": -9.691665386946681,
        "lon": 57.28026201918748,
        "alt_km": 839.4703003017057,
        "timestamp": "2025-12-02T15:49:07.467786+00:00",
        "meta_object_name": "FENGYUN 1C DEB",
        "meta_object_id": "1999-025AQH",
        "meta_epoch": "2025-12-02T04:14:12.928128",
        "meta_mean_motion": 14.27258567,
        "meta_eccentricity": 0.005403,
        "meta_inclination": 98.7559,
        "meta_ra_of_asc_node": 55.2889,
        "meta_arg_of_pericenter": 198.847,
        "meta_mean_anomaly": 193.0441,
        "meta_ephemeris_type": 0,
        "meta_classification_type": "U",
        "meta_norad_cat_id": 30675,
        "meta_element_set_no": 999,
        "meta_rev_at_epoch": 96741,
        "meta_bstar": 0.0019741378,
        "meta_mean_motion_dot": 4.861e-05,
        "meta_mean_motion_ddot": 0,
        "tle_line1": "1 30675U 99025AQH 25336.17653852  .00004861  00000+0  19741-2 0  9994",
        "tle_line2": "2 30675  98.7559  55.2889 0054030 198.8470 193.0441 14.27258567967418"
      },
      "geometry": {
        "type": "Point",
        "coordinates": [
          57.28026201918748,
          -9.691665386946681
        ]
      }
    },
    {
      "type": "Feature",
      "properties": {
        "norad_id": 30676,
        "name": "FENGYUN 1C DEB",
        "group": "fengyun-1c-debris",
        "lat": 78.95980224292194,
        "lon": 115.71554544242711,
        "alt_km": 632.6955830649013,
        "timestamp": "2025-12-02T15:49:07.467797+00:00",
        "meta_object_name": "FENGYUN 1C DEB",
        "meta_object_id": "1999-025AQJ",
        "meta_epoch": "2025-12-02T06:42:25.502112",
        "meta_mean_motion": 13.73862929,
        "meta_eccentricity": 0.04725624,
        "meta_inclination": 98.2659,
        "meta_ra_of_asc_node": 163.549,
        "meta_arg_of_pericenter": 76.6678,
        "meta_mean_anomaly": 288.6704,
        "meta_ephemeris_type": 0,
        "meta_classification_type": "U",
        "meta_norad_cat_id": 30676,
        "meta_element_set_no": 999,
        "meta_rev_at_epoch": 93780,
        "meta_bstar": 0.00095267269,
        "meta_mean_motion_dot": 1.978e-05,
        "meta_mean_motion_ddot": 0,
        "tle_line1": "1 30676U 99025AQJ 25336.27946183  .00001978  00000+0  95267-3 0  9992",
        "tle_line2": "2 30676  98.2659 163.5490 0472562  76.6678 288.6704 13.73862929937809"
      },
      "geometry": {
        "type": "Point",
        "coordinates": [
          115.71554544242711,
          78.95980224292194
        ]
      }
    },
    {
      "type": "Feature",
      "properties": {
        "norad_id": 30677,
        "name": "FENGYUN 1C DEB",
        "group": "fengyun-1c-debris",
        "lat": -33.63362877728679,
        "lon": 27.69510033910622,
        "alt_km": 772.2653842979607,
        "timestamp": "2025-12-02T15:49:07.467807+00:00",
        "meta_object_name": "FENGYUN 1C DEB",
        "meta_object_id": "1999-025AQK",
        "meta_epoch": "2025-12-02T02:44:29.645664",
        "meta_mean_motion": 14.38017999,
        "meta_eccentricity": 0.0065701,
        "meta_inclination": 98.2559,
        "meta_ra_of_asc_node": 21.6287,
        "meta_arg_of_pericenter": 236.0196,
        "meta_mean_anomaly": 150.1488,
        "meta_ephemeris_type": 0,
        "meta_classification_type": "U",
        "meta_norad_cat_id": 30677,
        "meta_element_set_no": 999,
        "meta_rev_at_epoch": 97827,
        "meta_bstar": 0.0014679126,
        "meta_mean_motion_dot": 4.514e-05,
        "meta_mean_motion_ddot": 0,
        "tle_line1": "1 30677U 99025AQK 25336.11423201  .00004514  00000+0  14679-2 0  9993",
        "tle_line2": "2 30677  98.2559  21.6287 0065701 236.0196 150.1488 14.38017999978276"
      },
      "geometry": {
        "type": "Point",
        "coordinates": [
          27.69510033910622,
          -33.63362877728679
        ]
      }
    },
    {
      "type": "Feature",
      "properties": {
        "norad_id": 30678,
        "name": "FENGYUN 1C DEB",
        "group": "fengyun-1c-debris",
        "lat": -37.45599590714962,
        "lon": -55.87269271949852,
        "alt_km": 793.2740912551553,
        "timestamp": "2025-12-02T15:49:07.467818+00:00",
        "meta_object_name": "FENGYUN 1C DEB",
        "meta_object_id": "1999-025AQL",
        "meta_epoch": "2025-12-01T20:02:16.877184",
        "meta_mean_motion": 14.23902808,
        "meta_eccentricity": 0.00729156,
        "meta_inclination": 99.0792,
        "meta_ra_of_asc_node": 296.24,
        "meta_arg_of_pericenter": 262.794,
        "meta_mean_anomaly": 156.0255,
        "meta_ephemeris_type": 0,
        "meta_classification_type": "U",
        "meta_norad_cat_id": 30678,
        "meta_element_set_no": 999,
        "meta_rev_at_epoch": 95720,
        "meta_bstar": 0.0034552097,
        "meta_mean_motion_dot": 8.1e-05,
        "meta_mean_motion_ddot": 0,
        "tle_line1": "1 30678U 99025AQL 25335.83491756  .00008100  00000+0  34552-2 0  9999",
        "tle_line2": "2 30678  99.0792 296.2400 0072915 262.7940 156.0255 14.23902808957203"
      },
      "geometry": {
        "type": "Point",
        "coordinates": [
          -55.87269271949852,
          -37.45599590714962
        ]
      }
    }
  ]
}